SILVERSAT               
1 66909U 98067XV  25350.58949970  .00059105  00000+0  95917-3 0  9999
2 66909  51.6305 123.2468 0004075 249.7085 110.3467 15.52156791  2218
1998-067XW              
1 66910U 98067XW  25350.58778035  .00050519  00000+0  82002-3 0  9994
2 66910  51.6297 123.2359 0004661 228.2549 131.8043 15.52215974  2214
1998-067XX              
1 66911U 98067XX  25350.90813934  .00064419  00000+0  10270-2 0  9990
2 66911  51.6301 121.6250 0004334 233.1446 126.9147 15.52613586  2256
1998-067XY              
1 66912U 98067XY  25350.65699465  .00044864  00000+0  74797-3 0  9991
2 66912  51.6299 122.9476 0004223 244.4597 115.5956 15.51521639  2210
2025-284A               
1 66913U 25284A   25350.94734408  .00008437  00000+0  43058-3 0  9994
2 66913  80.4051 124.4376 0020289 160.9258 199.2733 15.16439039  1763
2025-284B               
1 66914U 25284B   25350.28554881  .00008068  00000+0  38445-3 0  9991
2 66914  80.4045 125.2713 0008179 234.9626 125.0834 15.18985981  1668
HULIANWANG DIGUI-105    
1 66915U 25285A   25350.97416556  .00000130  00000+0  17788-3 0  9994
2 66915  50.0058 100.0293 0007963 296.8829  63.1261 14.03717093  1501
HULIANWANG DIGUI-106    
1 66916U 25285B   25350.97122647 -.00000176  00000+0 -15535-4 0  9991
2 66916  50.0056 100.0152 0006781 290.1353  69.8821 14.03701573  1501
HULIANWANG DIGUI-107    
1 66917U 25285C   25350.96927220 -.00000175  00000+0 -14824-4 0  9990
2 66917  50.0021  99.9992 0007453 299.5406  60.4755 14.03661807  1509
HULIANWANG DIGUI-108    
1 66918U 25285D   25350.96832906 -.00000061  00000+0  56994-4 0  9994
2 66918  50.0042  99.9973 0006582 293.7221  66.2993 14.03600889  1506
HULIANWANG DIGUI-109    
1 66919U 25285E   25350.96735999 -.00000173  00000+0 -13766-4 0  9994
2 66919  50.0067  99.9964 0007832 305.0050  55.0119 14.03955536  1508
HULIANWANG DIGUI-110    
1 66920U 25285F   25350.96639080 -.00000013  00000+0  87226-4 0  9994
2 66920  50.0111  99.9963 0005581 302.4106  57.6258 14.04068646  1501
