CCSDS_OMM_VERS = 2.0
CREATION_DATE  = 
ORIGINATOR     = 

OBJECT_NAME    = SILVERSAT
OBJECT_ID      = 1998-067XV
CENTER_NAME    = EARTH
REF_FRAME      = TEME
TIME_SYSTEM    = UTC
MEAN_ELEMENT_THEORY = SGP/SGP4

EPOCH          = 2025-12-16T14:08:52.774080
MEAN_MOTION    = 15.52156791
ECCENTRICITY   = .00040754
INCLINATION    = 51.6305
RA_OF_ASC_NODE = 123.2468
ARG_OF_PERICENTER = 249.7085
MEAN_ANOMALY   = 110.3467

EPHEMERIS_TYPE = 0
CLASSIFICATION_TYPE = U
NORAD_CAT_ID   = 66909
ELEMENT_SET_NO = 999
REV_AT_EPOCH   = 221
BSTAR          = .95917161E-3
MEAN_MOTION_DOT = .59105E-3
MEAN_MOTION_DDOT = 0

CCSDS_OMM_VERS = 2.0
CREATION_DATE  = 
ORIGINATOR     = 

OBJECT_NAME    = 1998-067XW
OBJECT_ID      = 1998-067XW
CENTER_NAME    = EARTH
REF_FRAME      = TEME
TIME_SYSTEM    = UTC
MEAN_ELEMENT_THEORY = SGP/SGP4

EPOCH          = 2025-12-16T14:06:24.222240
MEAN_MOTION    = 15.52215974
ECCENTRICITY   = .00046619
INCLINATION    = 51.6297
RA_OF_ASC_NODE = 123.2359
ARG_OF_PERICENTER = 228.2549
MEAN_ANOMALY   = 131.8043

EPHEMERIS_TYPE = 0
CLASSIFICATION_TYPE = U
NORAD_CAT_ID   = 66910
ELEMENT_SET_NO = 999
REV_AT_EPOCH   = 221
BSTAR          = .82001517E-3
MEAN_MOTION_DOT = .50519E-3
MEAN_MOTION_DDOT = 0

CCSDS_OMM_VERS = 2.0
CREATION_DATE  = 
ORIGINATOR     = 

OBJECT_NAME    = 1998-067XX
OBJECT_ID      = 1998-067XX
CENTER_NAME    = EARTH
REF_FRAME      = TEME
TIME_SYSTEM    = UTC
MEAN_ELEMENT_THEORY = SGP/SGP4

EPOCH          = 2025-12-16T21:47:43.238976
MEAN_MOTION    = 15.52613586
ECCENTRICITY   = .00043348
INCLINATION    = 51.6301
RA_OF_ASC_NODE = 121.6250
ARG_OF_PERICENTER = 233.1446
MEAN_ANOMALY   = 126.9147

EPHEMERIS_TYPE = 0
CLASSIFICATION_TYPE = U
NORAD_CAT_ID   = 66911
ELEMENT_SET_NO = 999
REV_AT_EPOCH   = 225
BSTAR          = .10270011E-2
MEAN_MOTION_DOT = .64419E-3
MEAN_MOTION_DDOT = 0

CCSDS_OMM_VERS = 2.0
CREATION_DATE  = 
ORIGINATOR     = 

OBJECT_NAME    = 1998-067XY
OBJECT_ID      = 1998-067XY
CENTER_NAME    = EARTH
REF_FRAME      = TEME
TIME_SYSTEM    = UTC
MEAN_ELEMENT_THEORY = SGP/SGP4

EPOCH          = 2025-12-16T15:46:04.337760
MEAN_MOTION    = 15.51521639
ECCENTRICITY   = .00042238
INCLINATION    = 51.6299
RA_OF_ASC_NODE = 122.9476
ARG_OF_PERICENTER = 244.4597
MEAN_ANOMALY   = 115.5956

EPHEMERIS_TYPE = 0
CLASSIFICATION_TYPE = U
NORAD_CAT_ID   = 66912
ELEMENT_SET_NO = 999
REV_AT_EPOCH   = 221
BSTAR          = .74796807E-3
MEAN_MOTION_DOT = .44864E-3
MEAN_MOTION_DDOT = 0

CCSDS_OMM_VERS = 2.0
CREATION_DATE  = 
ORIGINATOR     = 

OBJECT_NAME    = 2025-284A
OBJECT_ID      = 2025-284A
CENTER_NAME    = EARTH
REF_FRAME      = TEME
TIME_SYSTEM    = UTC
MEAN_ELEMENT_THEORY = SGP/SGP4

EPOCH          = 2025-12-16T22:44:10.528512
MEAN_MOTION    = 15.16439039
ECCENTRICITY   = .00202891
INCLINATION    = 80.4051
RA_OF_ASC_NODE = 124.4376
ARG_OF_PERICENTER = 160.9258
MEAN_ANOMALY   = 199.2733

EPHEMERIS_TYPE = 0
CLASSIFICATION_TYPE = U
NORAD_CAT_ID   = 66913
ELEMENT_SET_NO = 999
REV_AT_EPOCH   = 176
BSTAR          = .43058043E-3
MEAN_MOTION_DOT = .8437E-4
MEAN_MOTION_DDOT = 0

CCSDS_OMM_VERS = 2.0
CREATION_DATE  = 
ORIGINATOR     = 

OBJECT_NAME    = 2025-284B
OBJECT_ID      = 2025-284B
CENTER_NAME    = EARTH
REF_FRAME      = TEME
TIME_SYSTEM    = UTC
MEAN_ELEMENT_THEORY = SGP/SGP4

EPOCH          = 2025-12-16T06:51:11.417184
MEAN_MOTION    = 15.18985981
ECCENTRICITY   = .00081793
INCLINATION    = 80.4045
RA_OF_ASC_NODE = 125.2713
ARG_OF_PERICENTER = 234.9626
MEAN_ANOMALY   = 125.0834

EPHEMERIS_TYPE = 0
CLASSIFICATION_TYPE = U
NORAD_CAT_ID   = 66914
ELEMENT_SET_NO = 999
REV_AT_EPOCH   = 166
BSTAR          = .38444995E-3
MEAN_MOTION_DOT = .8068E-4
MEAN_MOTION_DDOT = 0

CCSDS_OMM_VERS = 2.0
CREATION_DATE  = 
ORIGINATOR     = 

OBJECT_NAME    = HULIANWANG DIGUI-105
OBJECT_ID      = 2025-285A
CENTER_NAME    = EARTH
REF_FRAME      = TEME
TIME_SYSTEM    = UTC
MEAN_ELEMENT_THEORY = SGP/SGP4

EPOCH          = 2025-12-16T23:22:47.904384
MEAN_MOTION    = 14.03717093
ECCENTRICITY   = .00079636
INCLINATION    = 50.0058
RA_OF_ASC_NODE = 100.0293
ARG_OF_PERICENTER = 296.8829
MEAN_ANOMALY   = 63.1261

EPHEMERIS_TYPE = 0
CLASSIFICATION_TYPE = U
NORAD_CAT_ID   = 66915
ELEMENT_SET_NO = 999
REV_AT_EPOCH   = 150
BSTAR          = .17788391E-3
MEAN_MOTION_DOT = .13E-5
MEAN_MOTION_DDOT = 0

CCSDS_OMM_VERS = 2.0
CREATION_DATE  = 
ORIGINATOR     = 

OBJECT_NAME    = HULIANWANG DIGUI-106
OBJECT_ID      = 2025-285B
CENTER_NAME    = EARTH
REF_FRAME      = TEME
TIME_SYSTEM    = UTC
MEAN_ELEMENT_THEORY = SGP/SGP4

EPOCH          = 2025-12-16T23:18:33.967008
MEAN_MOTION    = 14.03701573
ECCENTRICITY   = .00067815
INCLINATION    = 50.0056
RA_OF_ASC_NODE = 100.0152
ARG_OF_PERICENTER = 290.1353
MEAN_ANOMALY   = 69.8821

EPHEMERIS_TYPE = 0
CLASSIFICATION_TYPE = U
NORAD_CAT_ID   = 66916
ELEMENT_SET_NO = 999
REV_AT_EPOCH   = 150
BSTAR          = -.15534999E-4
MEAN_MOTION_DOT = -.176E-5
MEAN_MOTION_DDOT = 0

CCSDS_OMM_VERS = 2.0
CREATION_DATE  = 
ORIGINATOR     = 

OBJECT_NAME    = HULIANWANG DIGUI-107
OBJECT_ID      = 2025-285C
CENTER_NAME    = EARTH
REF_FRAME      = TEME
TIME_SYSTEM    = UTC
MEAN_ELEMENT_THEORY = SGP/SGP4

EPOCH          = 2025-12-16T23:15:45.118080
MEAN_MOTION    = 14.03661807
ECCENTRICITY   = .00074539
INCLINATION    = 50.0021
RA_OF_ASC_NODE = 99.9992
ARG_OF_PERICENTER = 299.5406
MEAN_ANOMALY   = 60.4755

EPHEMERIS_TYPE = 0
CLASSIFICATION_TYPE = U
NORAD_CAT_ID   = 66917
ELEMENT_SET_NO = 999
REV_AT_EPOCH   = 150
BSTAR          = -.14823738E-4
MEAN_MOTION_DOT = -.175E-5
MEAN_MOTION_DDOT = 0

CCSDS_OMM_VERS = 2.0
CREATION_DATE  = 
ORIGINATOR     = 

OBJECT_NAME    = HULIANWANG DIGUI-108
OBJECT_ID      = 2025-285D
CENTER_NAME    = EARTH
REF_FRAME      = TEME
TIME_SYSTEM    = UTC
MEAN_ELEMENT_THEORY = SGP/SGP4

EPOCH          = 2025-12-16T23:14:23.630784
MEAN_MOTION    = 14.03600889
ECCENTRICITY   = .0006582
INCLINATION    = 50.0042
RA_OF_ASC_NODE = 99.9973
ARG_OF_PERICENTER = 293.7221
MEAN_ANOMALY   = 66.2993

EPHEMERIS_TYPE = 0
CLASSIFICATION_TYPE = U
NORAD_CAT_ID   = 66918
ELEMENT_SET_NO = 999
REV_AT_EPOCH   = 150
BSTAR          = .56993842E-4
MEAN_MOTION_DOT = -.61E-6
MEAN_MOTION_DDOT = 0

CCSDS_OMM_VERS = 2.0
CREATION_DATE  = 
ORIGINATOR     = 

OBJECT_NAME    = HULIANWANG DIGUI-109
OBJECT_ID      = 2025-285E
CENTER_NAME    = EARTH
REF_FRAME      = TEME
TIME_SYSTEM    = UTC
MEAN_ELEMENT_THEORY = SGP/SGP4

EPOCH          = 2025-12-16T23:12:59.903136
MEAN_MOTION    = 14.03955536
ECCENTRICITY   = .00078329
INCLINATION    = 50.0067
RA_OF_ASC_NODE = 99.9964
ARG_OF_PERICENTER = 305.0050
MEAN_ANOMALY   = 55.0119

EPHEMERIS_TYPE = 0
CLASSIFICATION_TYPE = U
NORAD_CAT_ID   = 66919
ELEMENT_SET_NO = 999
REV_AT_EPOCH   = 150
BSTAR          = -.13765797E-4
MEAN_MOTION_DOT = -.173E-5
MEAN_MOTION_DDOT = 0

CCSDS_OMM_VERS = 2.0
CREATION_DATE  = 
ORIGINATOR     = 

OBJECT_NAME    = HULIANWANG DIGUI-110
OBJECT_ID      = 2025-285F
CENTER_NAME    = EARTH
REF_FRAME      = TEME
TIME_SYSTEM    = UTC
MEAN_ELEMENT_THEORY = SGP/SGP4

EPOCH          = 2025-12-16T23:11:36.165120
MEAN_MOTION    = 14.04068646
ECCENTRICITY   = .00055818
INCLINATION    = 50.0111
RA_OF_ASC_NODE = 99.9963
ARG_OF_PERICENTER = 302.4106
MEAN_ANOMALY   = 57.6258

EPHEMERIS_TYPE = 0
CLASSIFICATION_TYPE = U
NORAD_CAT_ID   = 66920
ELEMENT_SET_NO = 999
REV_AT_EPOCH   = 150
BSTAR          = .87226191E-4
MEAN_MOTION_DOT = -.13E-6
MEAN_MOTION_DDOT = 0

